{
  "type": "FeatureCollection",
  "features": [
    {
      "type": "Feature",
      "properties": {
        "norad_id": 34350,
        "name": "IRIDIUM 33 DEB",
        "group": "iridium-33-debris",
        "lat": -39.55963487332687,
        "lon": 1.3968907974806304,
        "alt_km": 763.2303994985532,
        "timestamp": "2025-12-08T23:34:04.356101+00:00",
        "meta_object_name": "IRIDIUM 33 DEB",
        "meta_object_id": "1997-051ES",
        "meta_epoch": "2025-12-08T12:39:42.923232",
        "meta_mean_motion": 14.45373543,
        "meta_eccentricity": 0.00224112,
        "meta_inclination": 86.3278,
        "meta_ra_of_asc_node": 4.6351,
        "meta_arg_of_pericenter": 148.3477,
        "meta_mean_anomaly": 329.0957,
        "meta_ephemeris_type": 0,
        "meta_classification_type": "U",
        "meta_norad_cat_id": 34350,
        "meta_element_set_no": 999,
        "meta_rev_at_epoch": 88232,
        "meta_bstar": 0.00058126986,
        "meta_mean_motion_dot": 2.069e-05,
        "meta_mean_motion_ddot": 0,
        "tle_line1": "1 34350U 97051ES  25342.52758013  .00002069  00000+0  58127-3 0  9996",
        "tle_line2": "2 34350  86.3278   4.6351 0022411 148.3477 329.0957 14.45373543882321"
      },
      "geometry": {
        "type": "Point",
        "coordinates": [
          1.3968907974806304,
          -39.55963487332687
        ]
      }
    },
    {
      "type": "Feature",
      "properties": {
        "norad_id": 34366,
        "name": "IRIDIUM 33 DEB",
        "group": "iridium-33-debris",
        "lat": 8.268962937333985,
        "lon": -129.5811132858935,
        "alt_km": 699.7632792784516,
        "timestamp": "2025-12-08T23:34:04.356111+00:00",
        "meta_object_name": "IRIDIUM 33 DEB",
        "meta_object_id": "1997-051FJ",
        "meta_epoch": "2025-12-08T15:07:22.770624",
        "meta_mean_motion": 14.5400194,
        "meta_eccentricity": 0.00221684,
        "meta_inclination": 86.3693,
        "meta_ra_of_asc_node": 51.1006,
        "meta_arg_of_pericenter": 152.6676,
        "meta_mean_anomaly": 338.1919,
        "meta_ephemeris_type": 0,
        "meta_classification_type": "U",
        "meta_norad_cat_id": 34366,
        "meta_element_set_no": 999,
        "meta_rev_at_epoch": 88122,
        "meta_bstar": 0.0016654446,
        "meta_mean_motion_dot": 7.063e-05,
        "meta_mean_motion_ddot": 0,
        "tle_line1": "1 34366U 97051FJ  25342.63012466  .00007063  00000+0  16654-2 0  9997",
        "tle_line2": "2 34366  86.3693  51.1006 0022168 152.6676 338.1919 14.54001940881227"
      },
      "geometry": {
        "type": "Point",
        "coordinates": [
          -129.5811132858935,
          8.268962937333985
        ]
      }
    },
    {
      "type": "Feature",
      "properties": {
        "norad_id": 34375,
        "name": "IRIDIUM 33 DEB",
        "group": "iridium-33-debris",
        "lat": -34.73128591039442,
        "lon": 6.690381874927705,
        "alt_km": 820.0054957933653,
        "timestamp": "2025-12-08T23:34:04.356122+00:00",
        "meta_object_name": "IRIDIUM 33 DEB",
        "meta_object_id": "1997-051FT",
        "meta_epoch": "2025-12-08T14:22:11.918784",
        "meta_mean_motion": 14.17981897,
        "meta_eccentricity": 0.01030005,
        "meta_inclination": 86.4327,
        "meta_ra_of_asc_node": 184.3663,
        "meta_arg_of_pericenter": 139.7555,
        "meta_mean_anomaly": 278.6554,
        "meta_ephemeris_type": 0,
        "meta_classification_type": "U",
        "meta_norad_cat_id": 34375,
        "meta_element_set_no": 999,
        "meta_rev_at_epoch": 86653,
        "meta_bstar": 0.00071558171,
        "meta_mean_motion_dot": 1.562e-05,
        "meta_mean_motion_ddot": 0,
        "tle_line1": "1 34375U 97051FT  25342.59874906  .00001562  00000+0  71558-3 0  9990",
        "tle_line2": "2 34375  86.4327 184.3663 0103000 139.7555 278.6554 14.17981897866534"
      },
      "geometry": {
        "type": "Point",
        "coordinates": [
          6.690381874927705,
          -34.73128591039442
        ]
      }
    },
    {
      "type": "Feature",
      "properties": {
        "norad_id": 34376,
        "name": "IRIDIUM 33 DEB",
        "group": "iridium-33-debris",
        "lat": -15.728088601915424,
        "lon": 7.184173770650783,
        "alt_km": 708.2552185245268,
        "timestamp": "2025-12-08T23:34:04.356133+00:00",
        "meta_object_name": "IRIDIUM 33 DEB",
        "meta_object_id": "1997-051FU",
        "meta_epoch": "2025-12-08T12:08:43.156320",
        "meta_mean_motion": 14.62473934,
        "meta_eccentricity": 0.00266769,
        "meta_inclination": 86.2983,
        "meta_ra_of_asc_node": 8.4427,
        "meta_arg_of_pericenter": 181.0135,
        "meta_mean_anomaly": 179.1027,
        "meta_ephemeris_type": 0,
        "meta_classification_type": "U",
        "meta_norad_cat_id": 34376,
        "meta_element_set_no": 999,
        "meta_rev_at_epoch": 87945,
        "meta_bstar": 0.0017835286,
        "meta_mean_motion_dot": 9.105e-05,
        "meta_mean_motion_ddot": 0,
        "tle_line1": "1 34376U 97051FU  25342.50605505  .00009105  00000+0  17835-2 0  9997",
        "tle_line2": "2 34376  86.2983   8.4427 0026676 181.0135 179.1027 14.62473934879455"
      },
      "geometry": {
        "type": "Point",
        "coordinates": [
          7.184173770650783,
          -15.728088601915424
        ]
      }
    },
    {
      "type": "Feature",
      "properties": {
        "norad_id": 34486,
        "name": "IRIDIUM 33 DEB",
        "group": "iridium-33-debris",
        "lat": 66.45462174272505,
        "lon": -174.56277493098776,
        "alt_km": 565.2290250280257,
        "timestamp": "2025-12-08T23:34:04.356144+00:00",
        "meta_object_name": "IRIDIUM 33 DEB",
        "meta_object_id": "1997-051GB",
        "meta_epoch": "2025-12-08T14:09:04.120128",
        "meta_mean_motion": 14.95506269,
        "meta_eccentricity": 0.00133675,
        "meta_inclination": 86.3937,
        "meta_ra_of_asc_node": 13.94,
        "meta_arg_of_pericenter": 125.8475,
        "meta_mean_anomaly": 36.4,
        "meta_ephemeris_type": 0,
        "meta_classification_type": "U",
        "meta_norad_cat_id": 34486,
        "meta_element_set_no": 999,
        "meta_rev_at_epoch": 88924,
        "meta_bstar": 0.0025063997,
        "meta_mean_motion_dot": 0.00027902,
        "meta_mean_motion_ddot": 0,
        "tle_line1": "1 34486U 97051GB  25342.58963102  .00027902  00000+0  25064-2 0  9995",
        "tle_line2": "2 34486  86.3937  13.9400 0013367 125.8475  36.4000 14.95506269889243"
      },
      "geometry": {
        "type": "Point",
        "coordinates": [
          -174.56277493098776,
          66.45462174272505
        ]
      }
    },
    {
      "type": "Feature",
      "properties": {
        "norad_id": 34487,
        "name": "IRIDIUM 33 DEB",
        "group": "iridium-33-debris",
        "lat": 62.77205249760283,
        "lon": -173.14318461018684,
        "alt_km": 720.6264207466611,
        "timestamp": "2025-12-08T23:34:04.356154+00:00",
        "meta_object_name": "IRIDIUM 33 DEB",
        "meta_object_id": "1997-051GC",
        "meta_epoch": "2025-12-08T08:07:14.868192",
        "meta_mean_motion": 14.43208344,
        "meta_eccentricity": 0.00324214,
        "meta_inclination": 86.3438,
        "meta_ra_of_asc_node": 14.2722,
        "meta_arg_of_pericenter": 142.2384,
        "meta_mean_anomaly": 232.9824,
        "meta_ephemeris_type": 0,
        "meta_classification_type": "U",
        "meta_norad_cat_id": 34487,
        "meta_element_set_no": 999,
        "meta_rev_at_epoch": 88185,
        "meta_bstar": 0.00035758899,
        "meta_mean_motion_dot": 1.229e-05,
        "meta_mean_motion_ddot": 0,
        "tle_line1": "1 34487U 97051GC  25342.33836653  .00001229  00000+0  35759-3 0  9996",
        "tle_line2": "2 34487  86.3438  14.2722 0032421 142.2384 232.9824 14.43208344881857"
      },
      "geometry": {
        "type": "Point",
        "coordinates": [
          -173.14318461018684,
          62.77205249760283
        ]
      }
    },
    {
      "type": "Feature",
      "properties": {
        "norad_id": 34488,
        "name": "IRIDIUM 33 DEB",
        "group": "iridium-33-debris",
        "lat": 10.093107276723522,
        "lon": -51.671888181101224,
        "alt_km": 476.5768272731784,
        "timestamp": "2025-12-08T23:34:04.356164+00:00",
        "meta_object_name": "IRIDIUM 33 DEB",
        "meta_object_id": "1997-051GD",
        "meta_epoch": "2025-12-08T07:48:19.384704",
        "meta_mean_motion": 15.2782721,
        "meta_eccentricity": 0.00144949,
        "meta_inclination": 86.3245,
        "meta_ra_of_asc_node": 307.997,
        "meta_arg_of_pericenter": 58.3794,
        "meta_mean_anomaly": 301.8866,
        "meta_ephemeris_type": 0,
        "meta_classification_type": "U",
        "meta_norad_cat_id": 34488,
        "meta_element_set_no": 999,
        "meta_rev_at_epoch": 89172,
        "meta_bstar": 0.0050658293,
        "meta_mean_motion_dot": 0.00140352,
        "meta_mean_motion_ddot": 0,
        "tle_line1": "1 34488U 97051GD  25342.32522436  .00140352  00000+0  50658-2 0  9992",
        "tle_line2": "2 34488  86.3245 307.9970 0014494  58.3794 301.8866 15.27827210891724"
      },
      "geometry": {
        "type": "Point",
        "coordinates": [
          -51.671888181101224,
          10.093107276723522
        ]
      }
    }
  ]
}